{
    "type": "FeatureCollection",
    "features": [
        {
            "type": "Feature",
            "properties": {
                "stroke": "rgba(255, 179, 0, 1)",
                "stroke-opacity": 1,
                "stroke-width": 5
            },
            "geometry": {
                "type": "LineString",
                "coordinates": [
                    [
                        150.994003,
                        -34.140377
                    ],
                    [
                        150.998067,
                        -34.143524
                    ],
                    [
                        151.006481,
                        -34.146023
                    ],
                    [
                        151.009103,
                        -34.147325
                    ],
                    [
                        151.012512,
                        -34.149713
                    ],
                    [
                        151.015265,
                        -34.151883
                    ],
                    [
                        151.019198,
                        -34.152968
                    ],
                    [
                        151.021296,
                        -34.152317
                    ],
                    [
                        151.023,
                        -34.152642
                    ],
                    [
                        151.023,
                        -34.151449
                    ],
                    [
                        151.025229,
                        -34.151123
                    ],
                    [
                        151.026278,
                        -34.149713
                    ],
                    [
                        151.028507,
                        -34.152425
                    ],
                    [
                        151.029294,
                        -34.15492
                    ],
                    [
                        151.028376,
                        -34.156548
                    ],
                    [
                        151.025098,
                        -34.156765
                    ],
                    [
                        151.023132,
                        -34.156331
                    ],
                    [
                        151.021689,
                        -34.15709
                    ],
                    [
                        151.019067,
                        -34.157199
                    ],
                    [
                        151.017232,
                        -34.159911
                    ],
                    [
                        151.015527,
                        -34.162515
                    ],
                    [
                        151.016052,
                        -34.164251
                    ],
                    [
                        151.016576,
                        -34.167071
                    ],
                    [
                        151.016969,
                        -34.169349
                    ],
                    [
                        151.019723,
                        -34.170651
                    ],
                    [
                        151.025885,
                        -34.173146
                    ],
                    [
                        151.026278,
                        -34.173797
                    ],
                    [
                        151.025623,
                        -34.17499
                    ],
                    [
                        151.023787,
                        -34.178569
                    ],
                    [
                        151.023263,
                        -34.18204
                    ],
                    [
                        151.019329,
                        -34.183125
                    ],
                    [
                        151.018543,
                        -34.186487
                    ],
                    [
                        151.015396,
                        -34.187029
                    ],
                    [
                        151.01343,
                        -34.183342
                    ],
                    [
                        151.009627,
                        -34.18345
                    ],
                    [
                        151.009365,
                        -34.18486
                    ],
                    [
                        151.010152,
                        -34.186053
                    ],
                    [
                        151.011594,
                        -34.187029
                    ],
                    [
                        151.010676,
                        -34.191259
                    ],
                    [
                        151.012118,
                        -34.193102
                    ],
                    [
                        151.013036,
                        -34.19538
                    ],
                    [
                        151.011594,
                        -34.195814
                    ],
                    [
                        151.011201,
                        -34.197332
                    ],
                    [
                        151.010283,
                        -34.198525
                    ],
                    [
                        151.011332,
                        -34.201236
                    ],
                    [
                        151.008972,
                        -34.201127
                    ],
                    [
                        151.008578,
                        -34.202645
                    ],
                    [
                        151.011332,
                        -34.206115
                    ],
                    [
                        151.011463,
                        -34.208934
                    ],
                    [
                        151.010807,
                        -34.210669
                    ],
                    [
                        151.009103,
                        -34.212512
                    ],
                    [
                        151.005432,
                        -34.215548
                    ],
                    [
                        151.002416,
                        -34.21815
                    ],
                    [
                        150.999139,
                        -34.217174
                    ],
                    [
                        150.999139,
                        -34.22021
                    ],
                    [
                        150.998745,
                        -34.221185
                    ]
                ]
            }
        }
    ]
}